STARLINK-36345          
1 68243U 26054M   26090.83335647  .00009046  00000+0  63145-4 0  9997
2 68243  53.1602 201.7461 0000973  80.8040 338.7385 15.75228877  3510
STARLINK-36310          
1 68244U 26054N   26090.61955623  .00373987  00000+0  18088-2 0  9998
2 68244  53.1596 202.6565 0000810  58.4255 301.6846 15.80976424  2241
STARLINK-36247          
1 68245U 26054P   26090.62030921  .00336605  00000+0  16379-2 0  9992
2 68245  53.1598 202.6622 0001390  40.7381 319.3746 15.80944479  2246
STARLINK-37043          
1 68246U 26054Q   26090.61880785  .00277057  00000+0  13588-2 0  9997
2 68246  53.1597 202.6515 0001451  50.8462 309.2689 15.80934392  2244
STARLINK-37044          
1 68247U 26054R   26090.61805928  .00294903  00000+0  14432-2 0  9992
2 68247  53.1598 202.6461 0001493  54.0093 306.1068 15.80933041  2245
STARLINK-36997          
1 68248U 26054S   26090.83335647  .00006042  00000+0  43557-4 0  9990
2 68248  53.1598 201.6930 0001208  63.3789  21.9094 15.75240117  3471
STARLINK-37141          
1 68249U 26054T   26090.74303912 -.00444008  00000+0 -24100-2 0  9992
2 68249  53.1594 202.0032 0000344 154.0374 206.0666 15.80455180  2265
STARLINK-37087          
1 68250U 26054U   26090.83335647  .00065979  00000+0  43185-3 0  9993
2 68250  53.1592 201.5917 0000774  67.6307  67.3120 15.75206069  3474
STARLINK-36274          
1 68251U 26054V   26090.83335647 -.00032416  00000+0 -20792-3 0  9995
2 68251  53.1595 201.6442 0001025  79.2476  29.9253 15.75259508  3510
STARLINK-37085          
1 68252U 26054W   26090.67752657  .00225062  00000+0  11121-2 0  9996
2 68252  53.1596 202.3039 0001242  81.5689 278.5474 15.80916834  2250
STARLINK-37086          
1 68253U 26054X   26090.73999589  .00401965  00000+0  19451-2 0  9993
2 68253  53.1593 201.9828 0001185 114.9226 245.1920 15.80891514  2267
STARLINK-37084          
1 68254U 26054Y   26090.67527278  .00308341  00000+0  15046-2 0  9999
2 68254  53.1591 202.2893 0000997  69.3205 290.7924 15.80959085  2259
STARLINK-37075          
1 68255U 26054Z   26090.67602489  .00252682  00000+0  12430-2 0  9998
2 68255  53.1594 202.2941 0001274  89.3603 270.7566 15.80935766  2250
STARLINK-36333          
1 68256U 26054AA  26090.67452262  .00287083  00000+0  14049-2 0  9992
2 68256  53.1591 202.2843 0001115  68.2133 291.9008 15.80955143  2254
STARLINK-36745          
1 68257U 26054AB  26090.83335647  .00010997  00000+0  75767-4 0  9992
2 68257  53.1592 201.5382 0001721  47.7621 112.8946 15.75255389  3479
STARLINK-36890          
1 68258U 26054AC  26090.67227375  .00202657  00000+0  10045-2 0  9995
2 68258  53.1593 202.2689 0000888  88.5320 271.5804 15.80913599  2252
STARLINK-36323          
1 68259U 26054AD  26090.67377527  .00230970  00000+0  11400-2 0  9996
2 68259  53.1593 202.2790 0001191  70.9604 289.1547 15.80925211  2257
