[{"OBJECT_NAME":"STARLINK-36345","OBJECT_ID":"2026-054M","EPOCH":"2026-03-31T20:00:01.999008","MEAN_MOTION":15.75228877,"ECCENTRICITY":9.73e-5,"INCLINATION":53.1602,"RA_OF_ASC_NODE":201.7461,"ARG_OF_PERICENTER":80.804,"MEAN_ANOMALY":338.7385,"EPHEMERIS_TYPE":0,"CLASSIFICATION_TYPE":"U","NORAD_CAT_ID":68243,"ELEMENT_SET_NO":999,"REV_AT_EPOCH":351,"BSTAR":6.3145e-5,"MEAN_MOTION_DOT":9.046e-5,"MEAN_MOTION_DDOT":0},{"OBJECT_NAME":"STARLINK-36310","OBJECT_ID":"2026-054N","EPOCH":"2026-03-31T14:52:09.658272","MEAN_MOTION":15.80976424,"ECCENTRICITY":8.1e-5,"INCLINATION":53.1596,"RA_OF_ASC_NODE":202.6565,"ARG_OF_PERICENTER":58.4255,"MEAN_ANOMALY":301.6846,"EPHEMERIS_TYPE":0,"CLASSIFICATION_TYPE":"U","NORAD_CAT_ID":68244,"ELEMENT_SET_NO":999,"REV_AT_EPOCH":224,"BSTAR":0.0018088,"MEAN_MOTION_DOT":0.00373987,"MEAN_MOTION_DDOT":0},{"OBJECT_NAME":"STARLINK-36247","OBJECT_ID":"2026-054P","EPOCH":"2026-03-31T14:53:14.715744","MEAN_MOTION":15.80944479,"ECCENTRICITY":0.000139,"INCLINATION":53.1598,"RA_OF_ASC_NODE":202.6622,"ARG_OF_PERICENTER":40.7381,"MEAN_ANOMALY":319.3746,"EPHEMERIS_TYPE":0,"CLASSIFICATION_TYPE":"U","NORAD_CAT_ID":68245,"ELEMENT_SET_NO":999,"REV_AT_EPOCH":224,"BSTAR":0.0016379,"MEAN_MOTION_DOT":0.00336605,"MEAN_MOTION_DDOT":0},{"OBJECT_NAME":"STARLINK-37043","OBJECT_ID":"2026-054Q","EPOCH":"2026-03-31T14:51:04.998240","MEAN_MOTION":15.80934392,"ECCENTRICITY":0.0001451,"INCLINATION":53.1597,"RA_OF_ASC_NODE":202.6515,"ARG_OF_PERICENTER":50.8462,"MEAN_ANOMALY":309.2689,"EPHEMERIS_TYPE":0,"CLASSIFICATION_TYPE":"U","NORAD_CAT_ID":68246,"ELEMENT_SET_NO":999,"REV_AT_EPOCH":224,"BSTAR":0.0013588,"MEAN_MOTION_DOT":0.00277057,"MEAN_MOTION_DDOT":0},{"OBJECT_NAME":"STARLINK-37044","OBJECT_ID":"2026-054R","EPOCH":"2026-03-31T14:50:00.321792","MEAN_MOTION":15.80933041,"ECCENTRICITY":0.0001493,"INCLINATION":53.1598,"RA_OF_ASC_NODE":202.6461,"ARG_OF_PERICENTER":54.0093,"MEAN_ANOMALY":306.1068,"EPHEMERIS_TYPE":0,"CLASSIFICATION_TYPE":"U","NORAD_CAT_ID":68247,"ELEMENT_SET_NO":999,"REV_AT_EPOCH":224,"BSTAR":0.0014432,"MEAN_MOTION_DOT":0.00294903,"MEAN_MOTION_DDOT":0},{"OBJECT_NAME":"STARLINK-36997","OBJECT_ID":"2026-054S","EPOCH":"2026-03-31T20:00:01.999008","MEAN_MOTION":15.75240117,"ECCENTRICITY":0.0001208,"INCLINATION":53.1598,"RA_OF_ASC_NODE":201.693,"ARG_OF_PERICENTER":63.3789,"MEAN_ANOMALY":21.9094,"EPHEMERIS_TYPE":0,"CLASSIFICATION_TYPE":"U","NORAD_CAT_ID":68248,"ELEMENT_SET_NO":999,"REV_AT_EPOCH":347,"BSTAR":4.3557e-5,"MEAN_MOTION_DOT":6.042e-5,"MEAN_MOTION_DDOT":0},{"OBJECT_NAME":"STARLINK-37141","OBJECT_ID":"2026-054T","EPOCH":"2026-03-31T17:49:58.579968","MEAN_MOTION":15.8045518,"ECCENTRICITY":3.44e-5,"INCLINATION":53.1594,"RA_OF_ASC_NODE":202.0032,"ARG_OF_PERICENTER":154.0374,"MEAN_ANOMALY":206.0666,"EPHEMERIS_TYPE":0,"CLASSIFICATION_TYPE":"U","NORAD_CAT_ID":68249,"ELEMENT_SET_NO":999,"REV_AT_EPOCH":226,"BSTAR":-0.00241,"MEAN_MOTION_DOT":-0.00444008,"MEAN_MOTION_DDOT":0},{"OBJECT_NAME":"STARLINK-37087","OBJECT_ID":"2026-054U","EPOCH":"2026-03-31T20:00:01.999008","MEAN_MOTION":15.75206069,"ECCENTRICITY":7.74e-5,"INCLINATION":53.1592,"RA_OF_ASC_NODE":201.5917,"ARG_OF_PERICENTER":67.6307,"MEAN_ANOMALY":67.312,"EPHEMERIS_TYPE":0,"CLASSIFICATION_TYPE":"U","NORAD_CAT_ID":68250,"ELEMENT_SET_NO":999,"REV_AT_EPOCH":347,"BSTAR":0.00043185,"MEAN_MOTION_DOT":0.00065979,"MEAN_MOTION_DDOT":0},{"OBJECT_NAME":"STARLINK-36274","OBJECT_ID":"2026-054V","EPOCH":"2026-03-31T20:00:01.999008","MEAN_MOTION":15.75259508,"ECCENTRICITY":0.0001025,"INCLINATION":53.1595,"RA_OF_ASC_NODE":201.6442,"ARG_OF_PERICENTER":79.2476,"MEAN_ANOMALY":29.9253,"EPHEMERIS_TYPE":0,"CLASSIFICATION_TYPE":"U","NORAD_CAT_ID":68251,"ELEMENT_SET_NO":999,"REV_AT_EPOCH":351,"BSTAR":-0.00020792,"MEAN_MOTION_DOT":-0.00032416,"MEAN_MOTION_DDOT":0},{"OBJECT_NAME":"STARLINK-37085","OBJECT_ID":"2026-054W","EPOCH":"2026-03-31T16:15:38.295648","MEAN_MOTION":15.80916834,"ECCENTRICITY":0.0001242,"INCLINATION":53.1596,"RA_OF_ASC_NODE":202.3039,"ARG_OF_PERICENTER":81.5689,"MEAN_ANOMALY":278.5474,"EPHEMERIS_TYPE":0,"CLASSIFICATION_TYPE":"U","NORAD_CAT_ID":68252,"ELEMENT_SET_NO":999,"REV_AT_EPOCH":225,"BSTAR":0.0011121,"MEAN_MOTION_DOT":0.00225062,"MEAN_MOTION_DDOT":0},{"OBJECT_NAME":"STARLINK-37086","OBJECT_ID":"2026-054X","EPOCH":"2026-03-31T17:45:35.644896","MEAN_MOTION":15.80891514,"ECCENTRICITY":0.0001185,"INCLINATION":53.1593,"RA_OF_ASC_NODE":201.9828,"ARG_OF_PERICENTER":114.9226,"MEAN_ANOMALY":245.192,"EPHEMERIS_TYPE":0,"CLASSIFICATION_TYPE":"U","NORAD_CAT_ID":68253,"ELEMENT_SET_NO":999,"REV_AT_EPOCH":226,"BSTAR":0.0019451,"MEAN_MOTION_DOT":0.00401965,"MEAN_MOTION_DDOT":0},{"OBJECT_NAME":"STARLINK-37084","OBJECT_ID":"2026-054Y","EPOCH":"2026-03-31T16:12:23.568192","MEAN_MOTION":15.80959085,"ECCENTRICITY":9.97e-5,"INCLINATION":53.1591,"RA_OF_ASC_NODE":202.2893,"ARG_OF_PERICENTER":69.3205,"MEAN_ANOMALY":290.7924,"EPHEMERIS_TYPE":0,"CLASSIFICATION_TYPE":"U","NORAD_CAT_ID":68254,"ELEMENT_SET_NO":999,"REV_AT_EPOCH":225,"BSTAR":0.0015046,"MEAN_MOTION_DOT":0.00308341,"MEAN_MOTION_DDOT":0},{"OBJECT_NAME":"STARLINK-37075","OBJECT_ID":"2026-054Z","EPOCH":"2026-03-31T16:13:28.550496","MEAN_MOTION":15.80935766,"ECCENTRICITY":0.0001274,"INCLINATION":53.1594,"RA_OF_ASC_NODE":202.2941,"ARG_OF_PERICENTER":89.3603,"MEAN_ANOMALY":270.7566,"EPHEMERIS_TYPE":0,"CLASSIFICATION_TYPE":"U","NORAD_CAT_ID":68255,"ELEMENT_SET_NO":999,"REV_AT_EPOCH":225,"BSTAR":0.001243,"MEAN_MOTION_DOT":0.00252682,"MEAN_MOTION_DDOT":0},{"OBJECT_NAME":"STARLINK-36333","OBJECT_ID":"2026-054AA","EPOCH":"2026-03-31T16:11:18.754368","MEAN_MOTION":15.80955143,"ECCENTRICITY":0.0001115,"INCLINATION":53.1591,"RA_OF_ASC_NODE":202.2843,"ARG_OF_PERICENTER":68.2133,"MEAN_ANOMALY":291.9008,"EPHEMERIS_TYPE":0,"CLASSIFICATION_TYPE":"U","NORAD_CAT_ID":68256,"ELEMENT_SET_NO":999,"REV_AT_EPOCH":225,"BSTAR":0.0014049,"MEAN_MOTION_DOT":0.00287083,"MEAN_MOTION_DDOT":0},{"OBJECT_NAME":"STARLINK-36745","OBJECT_ID":"2026-054AB","EPOCH":"2026-03-31T20:00:01.999008","MEAN_MOTION":15.75255389,"ECCENTRICITY":0.0001721,"INCLINATION":53.1592,"RA_OF_ASC_NODE":201.5382,"ARG_OF_PERICENTER":47.7621,"MEAN_ANOMALY":112.8946,"EPHEMERIS_TYPE":0,"CLASSIFICATION_TYPE":"U","NORAD_CAT_ID":68257,"ELEMENT_SET_NO":999,"REV_AT_EPOCH":347,"BSTAR":7.5767e-5,"MEAN_MOTION_DOT":0.00010997,"MEAN_MOTION_DDOT":0},{"OBJECT_NAME":"STARLINK-36890","OBJECT_ID":"2026-054AC","EPOCH":"2026-03-31T16:08:04.452000","MEAN_MOTION":15.80913599,"ECCENTRICITY":8.88e-5,"INCLINATION":53.1593,"RA_OF_ASC_NODE":202.2689,"ARG_OF_PERICENTER":88.532,"MEAN_ANOMALY":271.5804,"EPHEMERIS_TYPE":0,"CLASSIFICATION_TYPE":"U","NORAD_CAT_ID":68258,"ELEMENT_SET_NO":999,"REV_AT_EPOCH":225,"BSTAR":0.0010045,"MEAN_MOTION_DOT":0.00202657,"MEAN_MOTION_DDOT":0},{"OBJECT_NAME":"STARLINK-36323","OBJECT_ID":"2026-054AD","EPOCH":"2026-03-31T16:10:14.183328","MEAN_MOTION":15.80925211,"ECCENTRICITY":0.0001191,"INCLINATION":53.1593,"RA_OF_ASC_NODE":202.279,"ARG_OF_PERICENTER":70.9604,"MEAN_ANOMALY":289.1547,"EPHEMERIS_TYPE":0,"CLASSIFICATION_TYPE":"U","NORAD_CAT_ID":68259,"ELEMENT_SET_NO":999,"REV_AT_EPOCH":225,"BSTAR":0.00114,"MEAN_MOTION_DOT":0.0023097,"MEAN_MOTION_DDOT":0}]
